CCSDS_OMM_VERS,COMMENT,CREATION_DATE,ORIGINATOR,OBJECT_NAME,OBJECT_ID,CENTER_NAME,REF_FRAME,TIME_SYSTEM,MEAN_ELEMENT_THEORY,EPOCH,MEAN_MOTION,ECCENTRICITY,INCLINATION,RA_OF_ASC_NODE,ARG_OF_PERICENTER,MEAN_ANOMALY,EPHEMERIS_TYPE,CLASSIFICATION_TYPE,NORAD_CAT_ID,ELEMENT_SET_NO,REV_AT_EPOCH,BSTAR,MEAN_MOTION_DOT,MEAN_MOTION_DDOT,SEMIMAJOR_AXIS,PERIOD,APOAPSIS,PERIAPSIS,OBJECT_TYPE,RCS_SIZE,COUNTRY_CODE,LAUNCH_DATE,SITE,DECAY_DATE,FILE,GP_ID,TLE_LINE0,TLE_LINE1,TLE_LINE2
"2.0","GENERATED VIA SPACE-TRACK.ORG API","2013-12-26T23:44:19","18 SPCS","PAYLOAD B","2013-037B","EARTH","TEME","UTC","SGP4","2013-12-26T19:28:09.575615","14.67332966","0.00039680","98.0488","15.7324","197.9174","162.1897","0","U","39209","999","2343","0.00008441300000","0.00000429","0.0000000000000","7047.736","98.137","672.398","666.805","PAYLOAD","LARGE","PRC","2013-07-19","TSC","","1604694","94724496","0 PAYLOAD B","1 39209U 13037B   13360.81122194  .00000429  00000-0  84413-4 0  9997","2 39209 098.0488 015.7324 0003968 197.9174 162.1897 14.67332966 23431"
"2.0","GENERATED VIA SPACE-TRACK.ORG API","2013-12-26T23:46:40","18 SPCS","PAYLOAD C","2013-037C","EARTH","TEME","UTC","SGP4","2013-12-26T19:38:58.405919","14.95222573","0.00319300","97.6899","15.7094","225.0453","134.8145","0","U","39210","999","2381","0.00011901000000","0.00001262","0.0000000000000","6959.823","96.306","603.911","559.465","PAYLOAD","LARGE","PRC","2013-07-19","TSC","","1604696","94724540","0 PAYLOAD C","1 39210U 13037C   13360.81873155  .00001262  00000-0  11901-3 0  9996","2 39210 097.6899 015.7094 0031930 225.0453 134.8145 14.95222573 23818"
"2.0","GENERATED VIA SPACE-TRACK.ORG API","2013-12-27T08:04:25","18 SPCS","PAYLOAD B","2013-037B","EARTH","TEME","UTC","SGP4","2013-12-27T02:00:56.644415","14.67333311","0.00039910","98.0488","16.0002","197.1548","162.9538","0","U","39209","999","2347","0.00008279200000","0.00000420","0.0000000000000","7047.735","98.137","672.413","666.787","PAYLOAD","LARGE","PRC","2013-07-19","TSC","","1604929","94727625","0 PAYLOAD B","1 39209U 13037B   13361.08398894  .00000420  00000-0  82792-4 0  9998","2 39209 098.0488 016.0002 0003991 197.1548 162.9538 14.67333311 23470"
"2.0","GENERATED VIA SPACE-TRACK.ORG API","2013-12-27T06:29:26","18 SPCS","PAYLOAD A","2013-037A","EARTH","TEME","UTC","SGP4","2013-12-27T03:11:20.923583","14.67967929","0.00077870","98.0497","16.2531","213.3263","146.7440","0","U","39208","999","2350","0.00003099800000","0.00000129","0.0000000000000","7045.704","98.094","673.055","662.082","PAYLOAD","LARGE","PRC","2013-07-19","TSC","","1604825","94725322","0 PAYLOAD A","1 39208U 13037A   13361.13288106  .00000129  00000-0  30998-4 0  9994","2 39208 098.0497 016.2531 0007787 213.3263 146.7440 14.67967929 23504"
"2.0","GENERATED VIA SPACE-TRACK.ORG API","2013-12-27T08:07:17","18 SPCS","PAYLOAD C","2013-037C","EARTH","TEME","UTC","SGP4","2013-12-27T03:40:48.497375","14.95222743","0.00320000","97.6898","16.0375","223.8629","136.0041","0","U","39210","999","2386","0.00010490000000","0.00001106","0.0000000000000","6959.822","96.306","603.959","559.416","PAYLOAD","LARGE","PRC","2013-07-19","TSC","","1604931","94727665","0 PAYLOAD C","1 39210U 13037C   13361.15333909  .00001106  00000-0  10490-3 0  9991","2 39210 097.6898 016.0375 0032000 223.8629 136.0041 14.95222743 23866"
"2.0","GENERATED VIA SPACE-TRACK.ORG API","2013-12-27T15:33:38","18 SPCS","PAYLOAD B","2013-037B","EARTH","TEME","UTC","SGP4","2013-12-27T10:11:55.456224","14.67333622","0.00040140","98.0490","16.3349","195.2634","164.8453","0","U","39209","999","2352","0.00008024600000","0.00000405","0.0000000000000","7047.734","98.137","672.428","666.770","PAYLOAD","LARGE","PRC","2013-07-19","TSC","","1605050","94730214","0 PAYLOAD B","1 39209U 13037B   13361.42494741  .00000405  00000-0  80246-4 0  9999","2 39209 098.0490 016.3349 0004014 195.2634 164.8453 14.67333622 23520"
"2.0","GENERATED VIA SPACE-TRACK.ORG API","2013-12-27T15:43:26","18 SPCS","PAYLOAD C","2013-037C","EARTH","TEME","UTC","SGP4","2013-12-27T11:42:38.553408","14.95223161","0.00320130","97.6900","16.3660","222.7576","137.1145","0","U","39210","999","2391","0.00009881400000","0.00001038","0.0000000000000","6959.821","96.306","603.967","559.406","PAYLOAD","LARGE","PRC","2013-07-19","TSC","","1605063","94730548","0 PAYLOAD C","1 39210U 13037C   13361.48794622  .00001038  00000-0  98814-4 0  9991","2 39210 097.6900 016.3660 0032013 222.7576 137.1145 14.95223161 23911"
"2.0","GENERATED VIA SPACE-TRACK.ORG API","2013-12-27T14:19:36","18 SPCS","PAYLOAD A","2013-037A","EARTH","TEME","UTC","SGP4","2013-12-27T13:00:16.273728","14.67968436","0.00077770","98.0502","16.6559","211.6260","148.4478","0","U","39208","999","2356","0.00004323900000","0.00000199","0.0000000000000","7045.702","98.094","673.047","662.088","PAYLOAD","LARGE","PRC","2013-07-19","TSC","","1604957","94727975","0 PAYLOAD A","1 39208U 13037A   13361.54185502  .00000199  00000-0  43239-4 0  9994","2 39208 098.0502 016.6559 0007777 211.6260 148.4478 14.67968436 23562"
"2.0","GENERATED VIA SPACE-TRACK.ORG API","2013-12-28T00:05:39","18 SPCS","PAYLOAD B","2013-037B","EARTH","TEME","UTC","SGP4","2013-12-27T18:22:54.300000","14.67333595","0.00040460","98.0489","16.6699","193.7679","166.3402","0","U","39209","999","2357","0.00007478100000","0.00000374","0.0000000000000","7047.734","98.137","672.451","666.748","PAYLOAD","LARGE","PRC","2013-07-19","TSC","","1605246","94733516","0 PAYLOAD B","1 39209U 13037B   13361.76590625  .00000374  00000-0  74781-4 0  9996","2 39209 098.0489 016.6699 0004046 193.7679 166.3402 14.67333595 23571"
"2.0","GENERATED VIA SPACE-TRACK.ORG API","2013-12-28T00:13:48","18 SPCS","PAYLOAD C","2013-037C","EARTH","TEME","UTC","SGP4","2013-12-27T19:44:28.683744","14.95222326","0.00320390","97.6899","16.6941","221.5652","138.3115","0","U","39210","999","2396","0.00007556200000","0.00000780","0.0000000000000","6959.824","96.306","603.987","559.390","PAYLOAD","LARGE","PRC","2013-07-19","TSC","","1605255","94733693","0 PAYLOAD C","1 39210U 13037C   13361.82255421  .00000780  00000-0  75562-4 0  9996","2 39210 097.6899 016.6941 0032039 221.5652 138.3115 14.95222326 23960"
"2.0","GENERATED VIA SPACE-TRACK.ORG API","2013-12-27T22:32:10","18 SPCS","PAYLOAD A","2013-037A","EARTH","TEME","UTC","SGP4","2013-12-27T21:11:02.380415","14.67968694","0.00078180","98.0499","16.9907","210.4021","149.6743","0","U","39208","999","2361","0.00004020100000","0.00000182","0.0000000000000","7045.701","98.094","673.075","662.058","PAYLOAD","LARGE","PRC","2013-07-19","TSC","","1605149","94731338","0 PAYLOAD A","1 39208U 13037A   13361.88266644  .00000182  00000-0  40201-4 0  9996","2 39208 098.0499 016.9907 0007818 210.4021 149.6743 14.67968694 23615"
"2.0","GENERATED VIA SPACE-TRACK.ORG API","2013-12-28T07:39:21","18 SPCS","PAYLOAD B","2013-037B","EARTH","TEME","UTC","SGP4","2013-12-28T02:33:53.152416","14.67334216","0.00041320","98.0487","17.0053","193.0213","167.0920","0","U","39209","999","2362","0.00007941100000","0.00000400","0.0000000000000","7047.732","98.137","672.509","666.685","PAYLOAD","LARGE","PRC","2013-07-19","TSC","","1605469","94736605","0 PAYLOAD B","1 39209U 13037B   13362.10686519  .00000400  00000-0  79411-4 0  9998","2 39209 098.0487 017.0053 0004132 193.0213 167.0920 14.67334216 23621"
"2.0","GENERATED VIA SPACE-TRACK.ORG API","2013-12-28T06:30:44","18 SPCS","PAYLOAD A","2013-037A","EARTH","TEME","UTC","SGP4","2013-12-28T05:21:48.391199","14.67970021","0.00078320","98.0496","17.3256","209.6640","150.4125","0","U","39208","999","2366","0.00007931100000","0.00000406","0.0000000000000","7045.697","98.094","673.080","662.044","PAYLOAD","LARGE","PRC","2013-07-19","TSC","","1605385","94734527","0 PAYLOAD A","1 39208U 13037A   13362.22347675  .00000406  00000-0  79311-4 0  9992","2 39208 098.0496 017.3256 0007832 209.6640 150.4125 14.67970021 23663"
"2.0","GENERATED VIA SPACE-TRACK.ORG API","2013-12-28T05:52:52","18 SPCS","PAYLOAD C","2013-037C","EARTH","TEME","UTC","SGP4","2013-12-28T05:22:40.754784","14.95223065","0.00320570","97.6901","17.0887","220.2102","139.6745","0","U","39210","999","2402","0.00007650900000","0.00000791","0.0000000000000","6959.821","96.306","603.998","559.375","PAYLOAD","LARGE","PRC","2013-07-19","TSC","","1605360","94733922","0 PAYLOAD C","1 39210U 13037C   13362.22408281  .00000791  00000-0  76509-4 0  9999","2 39210 097.6901 017.0887 0032057 220.2102 139.6745 14.95223065 24026"
"2.0","GENERATED VIA SPACE-TRACK.ORG API","2013-12-28T15:18:43","18 SPCS","PAYLOAD B","2013-037B","EARTH","TEME","UTC","SGP4","2013-12-28T09:06:40.146911","14.67334936","0.00040900","98.0487","17.2732","192.2216","167.8896","0","U","39209","999","2366","0.00009651100000","0.00000497","0.0000000000000","7047.730","98.137","672.477","666.712","PAYLOAD","LARGE","PRC","2013-07-19","TSC","","1605565","94738842","0 PAYLOAD B","1 39209U 13037B   13362.37963133  .00000497  00000-0  96511-4 0  9993","2 39209 098.0487 017.2732 0004090 192.2216 167.8896 14.67334936 23667"
"2.0","GENERATED VIA SPACE-TRACK.ORG API","2013-12-28T15:20:01","18 SPCS","PAYLOAD C","2013-037C","EARTH","TEME","UTC","SGP4","2013-12-28T11:48:08.787167","14.95223185","0.00320900","97.6899","17.3509","219.4129","140.4743","0","U","39210","999","2406","0.00007243100000","0.00000745","0.0000000000000","6959.821","96.306","604.020","559.352","PAYLOAD","LARGE","PRC","2013-07-19","TSC","","1605567","94738873","0 PAYLOAD C","1 39210U 13037C   13362.49176837  .00000745  00000-0  72431-4 0  9996","2 39210 097.6899 017.3509 0032090 219.4129 140.4743 14.95223185 24067"
